ONEWEB-0045             
1 45151U 20008W   24196.39409074 -.00000483  00000+0 -13990-2 0  9994
2 45151  87.8978 160.9174 0002084  79.9223 280.2140 13.11416651218297
ONEWEB-0047             
1 45152U 20008X   24196.50739389 -.00000552  00000+0 -16185-2 0  9999
2 45152  87.8946 176.0122 0002072  86.7616 273.3748 13.10371031216176
ONEWEB-0048             
1 45153U 20008Y   24196.50242201 -.00000415  00000+0 -12248-2 0  9996
2 45153  87.8944 176.0295 0002089  87.5790 272.5577 13.10371784215788
ONEWEB-0049             
1 45154U 20008Z   24196.50408678 -.00000493  00000+0 -14477-2 0  9991
2 45154  87.8950 176.0098 0002242 100.7542 259.3838 13.10371872216008
ONEWEB-0051             
1 45155U 20008AA  24196.39239318 -.00000439  00000+0 -12731-2 0  9993
2 45155  87.8978 160.9594 0001852  82.6976 277.4362 13.11416839218972
ONEWEB-0052             
1 45156U 20008AB  24196.50076351 -.00000380  00000+0 -11237-2 0  9998
2 45156  87.8943 175.9800 0002354  97.9405 262.1989 13.10370941215914
ONEWEB-0053             
1 45157U 20008AC  24196.48252839  .00000524  00000+0  14656-2 0  9999
2 45157  87.8945 176.0365 0002382  81.5097 278.6301 13.10370294215889
ONEWEB-0054             
1 45158U 20008AD  24196.44100014 -.00000694  00000+0 -20253-2 0  9993
2 45158  87.8949 176.0259 0001997  86.4074 273.7282 13.10374466215997
